STARLINK-33859          
1 63640C 25083G   26121.18659722 -.00077121  00000+0 -27940-2 0  1219
2 63640  42.9998  69.1216 0001344 271.1161 359.9435 15.27609132    13
STARLINK-33826          
1 63641C 25083H   26121.21020833 -.00062824  00000+0 -22761-2 0  1219
2 63641  43.0029  68.4624 0001313 269.6763 350.7030 15.27600471    19
STARLINK-33836          
1 63642C 25083J   26121.22479167 -.00029178  00000+0 -10570-2 0  1219
2 63642  43.0020  68.7839 0001409 272.3303 258.5502 15.27586262    19
STARLINK-33558          
1 63643C 25083K   26121.21645833 -.00050863  00000+0 -18429-2 0  1210
2 63643  43.0009  68.3065 0001271 272.2638  72.0524 15.27591974    10
STARLINK-33852          
1 63644C 25083L   26121.19562500 -.00052474  00000+0 -19010-2 0  1214
2 63644  43.0023  68.9305 0001365 274.1959 103.1582 15.27597734    11
STARLINK-33835          
1 63645C 25083M   26121.19354167 -.00070336  00000+0 -25483-2 0  1211
2 63645  43.0039  68.7642 0001342 274.4429 162.2114 15.27604171    12
STARLINK-33661          
1 63646C 25083N   26121.20534722 -.00057437  00000+0 -20809-2 0  1215
2 63646  43.0038  68.5129 0001257 271.8663 307.6139 15.27598931    14
STARLINK-33729          
1 63647C 25083P   26121.18937500 -.00029966  00000+0 -10856-2 0  1211
2 63647  43.0005  69.0511 0001295 265.6891  41.8869 15.27585367    12
STARLINK-33717          
1 63648C 25083Q   26121.24354167 -.00018307  00000+0 -66335-3 0  1212
2 63648  43.0014  68.1854 0001357 271.4145 207.8750 15.27574097    10
STARLINK-33684          
1 63649C 25083R   26121.23312500 -.00035675  00000+0 -12927-2 0  1211
2 63649  43.0005  68.1413 0001344 270.1790 194.2101 15.27582654    17
STARLINK-33704          
1 63650C 25083S   26121.23729167 -.00056073  00000+0 -20316-2 0  1210
2 63650  43.0041  68.4039 0001271 269.4207  97.6337 15.27595359    12
STARLINK-33705          
1 63651C 25083T   26121.21993056  .00109700  00000+0  39767-2 0  1213
2 63651  43.0037  68.4454 0000831 256.7756  35.8121 15.27498174    10
STARLINK-33663          
1 63652C 25083U   26121.21437500 -.00061379  00000+0 -22241-2 0  1211
2 63652  43.0019  68.3753 0000962 272.1755  32.3849 15.27595979    18
STARLINK-33866          
1 63653C 25083V   26121.18798611 -.00074689  00000+0 -27059-2 0  1211
2 63653  43.0027  68.9339 0001359 272.6476  76.8095 15.27607392    19
STARLINK-33849          
1 63654C 25083W   26121.19354167 -.00052289  00000+0 -18940-2 0  1218
2 63654  43.0032  68.8673 0001510 258.3302 135.8570 15.27602307    19
STARLINK-33873          
1 63655C 25083X   26121.23173611 -.00016309  00000+0 -59086-3 0  1217
2 63655  43.0034  68.6703 0001381 274.7492 322.6572 15.27579114    19
STARLINK-33772          
1 63656C 25083Y   26121.20048611  .00015388  00000+0  55711-3 0  1211
2 63656  43.0040  68.6263 0001568 267.8423 249.3666 15.27584930    13
STARLINK-33789          
1 63657C 25083Z   26121.23590278 -.00024688  00000+0 -89444-3 0  1211
2 63657  43.0034  68.3255 0001380 273.7237 121.0544 15.27582011    15
STARLINK-33822          
1 63658C 25083AA  26121.22965278 -.00041552  00000+0 -15055-2 0  1212
2 63658  43.0035  68.6454 0001381 274.5780 325.5111 15.27587236    19
STARLINK-33771          
1 63659C 25083AB  26121.22062500 -.00045519  00000+0 -16492-2 0  1212
2 63659  43.0007  71.9431 0001118 273.7867  39.4705 15.27591473    14
STARLINK-33810          
1 63660C 25083AC  26121.19770833  .00044694  00000+0  16193-2 0  1214
2 63660  43.0010  68.4217 0001106 277.6720 316.2742 15.27546671    18
STARLINK-33823          
1 63661C 25083AD  26121.19631944  .00041617  00000+0  15069-2 0  1217
2 63661  43.0038  68.7874 0000869 268.9896 168.7016 15.27569631    18
STARLINK-11651 [DTC]    
1 63664C 25085A   26121.23590278 -.00104350  00000+0 -80999-3 0  1212
2 63664  42.9999 321.3323 0001792 265.6070 321.9674 15.70903979    14
STARLINK-11672 [DTC]    
1 63665C 25085B   26121.23173611 -.00104310  00000+0 -80969-3 0  1214
2 63665  42.9999 321.2822 0001850 266.9876 327.0521 15.70904450    14
STARLINK-11664 [DTC]    
1 63666C 25085C   26121.19006944  .00300030  00000+0  94693-3 0  1218
2 63666  42.9955 319.0673 0012618 291.6567 329.6703 15.90011712    14
STARLINK-11666 [DTC]    
1 63667C 25085D   26121.23243056 -.00110230  00000+0 -85559-3 0  1215
2 63667  43.0000 322.0998 0001878 265.5732   1.7322 15.70907092    10
STARLINK-11663 [DTC]    
1 63668C 25085E   26121.18659722 -.00007547  00000+0 -58567-4 0  1217
2 63668  42.9998 322.3011 0001820 273.2689 124.6018 15.70860382    15
STARLINK-11595 [DTC]    
1 63669C 25085F   26121.20881944 -.00060181  00000+0 -46734-3 0  1219
2 63669  43.0000 322.0920 0001769 264.4912 289.2660 15.70872041    17
STARLINK-11599 [DTC]    
1 63670C 25085G   26121.22965278 -.00092683  00000+0 -71970-3 0  1218
2 63670  43.0000 321.8910 0001842 267.1501  74.6211 15.70889104    17
STARLINK-11603 [DTC]    
1 63671C 25085H   26121.23937500 -.00109950  00000+0 -85398-3 0  1212
2 63671  43.0002 321.7571 0001774 267.6149 159.2676 15.70891866    12
STARLINK-11644 [DTC]    
1 63672C 25085J   26121.22201389 -.00110700  00000+0 -85955-3 0  1215
2 63672  43.0002 321.7864 0001891 266.8608  91.7861 15.70899319    16
STARLINK-11634 [DTC]    
1 63673C 25085K   26121.18868056 -.00063791  00000+0 -49531-3 0  1218
2 63673  43.0001 321.9125 0001771 264.0595 295.9200 15.70876888    11
STARLINK-11656 [DTC]    
1 63674C 25085L   26121.19909722 -.00051886  00000+0 -40278-3 0  1217
2 63674  43.0001 321.7742 0001861 274.1844  14.8335 15.70876278    14
STARLINK-11655 [DTC]    
1 63675C 25085M   26121.20187500 -.00066399  00000+0 -51534-3 0  1214
2 63675  43.0000 321.6825 0001981 271.9748  62.8253 15.70887528    18
STARLINK-11661 [DTC]    
1 63676C 25085N   26121.19631944 -.00061118  00000+0 -47446-3 0  1210
2 63676  42.9999 321.6407 0002003 271.7116  61.6992 15.70879653    10
STARLINK-33816          
1 63677C 25085P   26121.19562500 -.00070098  00000+0 -25390-2 0  1212
2 63677  43.0002  94.5410 0001207 270.9515 257.8394 15.27612785    15
STARLINK-33861          
1 63678C 25085Q   26121.19354167 -.00071614  00000+0 -25942-2 0  1219
2 63678  43.0015  94.6217 0000757 272.4430 216.5911 15.27610178    19
STARLINK-33850          
1 63679C 25085R   26121.23590278 -.00017341  00000+0 -62854-3 0  1211
2 63679  42.9987  94.1244 0000882 244.9368 223.4766 15.27564766    10
STARLINK-33887          
1 63680C 25085S   26121.23659722 -.00060533  00000+0 -21929-2 0  1211
2 63680  43.0022  93.7084 0001298 273.9047   8.0973 15.27602260    18
STARLINK-33886          
1 63681C 25085T   26121.19493056 -.00076818  00000+0 -27826-2 0  1218
2 63681  43.0024  93.8927 0001306 271.4171 162.4020 15.27613883    10
STARLINK-33840          
1 63682C 25085U   26121.21645833 -.00019776  00000+0 -71625-3 0  1211
2 63682  43.0008  94.4377 0000963 269.3320   7.0100 15.27591212    13
STARLINK-33851          
1 63683C 25085V   26119.40118056  .05831500  00000+0  44629-2 0  1192
2 63683  42.9955  95.1539 0004167 177.1239 122.1866 16.11263101    11
STARLINK-33853          
1 63684C 25085W   26121.24493056 -.00050598  00000+0 -18333-2 0  1217
2 63684  43.0017  93.7788 0000983 271.5939   6.7627 15.27592943    18
STARLINK-33847          
1 63685C 25085X   26121.22062500 -.00067102  00000+0 -24309-2 0  1211
2 63685  42.9992  94.2754 0001126 266.0307  89.9397 15.27605227    13
STARLINK-33880          
1 63686C 25085Y   26121.20534722 -.00080817  00000+0 -29270-2 0  1210
2 63686  43.0013  94.5344 0001088 260.5168 300.5706 15.27621414    11
STARLINK-33894          
1 63697C 25087A   26121.22201389 -.00033679  00000+0 -99507-3 0  1211
2 63697  53.1601 335.1734 0000657  84.8232  69.0803 15.34407748    10
STARLINK-33922          
1 63698C 25087B   26121.19770833 -.00011465  00000+0 -38609-3 0  1218
2 63698  53.1589 335.4179 0001228  81.9169 230.4985 15.30224842    17
STARLINK-33919          
1 63699C 25087C   26121.22131944 -.00017403  00000+0 -58696-3 0  1213
2 63699  53.1597 335.9147 0001003  88.7157  45.8192 15.30176819    18
STARLINK-33908          
1 63700C 25087D   26121.19215278 -.00005646  00000+0 -19041-3 0  1212
2 63700  53.1582 335.6247 0001159  71.3331 117.5773 15.30176296    18
STARLINK-33950          
1 63701C 25087E   26121.23798611 -.00045247  00000+0 -15247-2 0  1219
2 63701  53.1597 335.6195 0001179  88.0189 248.7683 15.30220066    17
STARLINK-33939          
1 63702C 25087F   26121.21298611 -.00019569  00000+0 -62925-3 0  1217
2 63702  53.1591 335.6750 0001116  84.7792 145.0039 15.31713288    11
STARLINK-33868          
1 63703C 25087G   26121.22201389 -.00031159  00000+0 -10503-2 0  1218
2 63703  53.1583 335.5285 0001040  80.2431 249.9561 15.30202861    15
STARLINK-33937          
1 63704C 25087H   26121.22479167 -.00026999  00000+0 -91000-3 0  1218
2 63704  53.1593 335.2531 0000900  73.3148  45.9735 15.30204015    10
STARLINK-33848          
1 63705C 25087J   26121.19215278 -.00013073  00000+0 -44056-3 0  1214
2 63705  53.1584 335.5324 0001104  82.9081 152.4995 15.30201539    13
STARLINK-33995          
1 63706C 25087K   26121.21506944 -.00027871  00000+0 -93930-3 0  1217
2 63706  53.1600 335.8825 0001205  91.0159  38.0486 15.30207434    15
STARLINK-33982          
1 63707C 25087L   26121.20395833 -.00020800  00000+0 -70126-3 0  1217
2 63707  53.1581 335.5426 0001113  78.9866 186.6037 15.30192237    11
STARLINK-33915          
1 63708C 25087M   26121.19631944 -.00022764  00000+0 -76699-3 0  1214
2 63708  53.1585 335.7082 0001234  87.0358  72.4521 15.30213062    17
STARLINK-33862          
1 63709C 25087N   26121.22965278 -.00045536  00000+0 -15346-2 0  1212
2 63709  53.1582 335.4836 0001154  90.0711 288.0447 15.30217480    17
STARLINK-33920          
1 63710C 25087P   26121.19770833 -.00019909  00000+0 -67100-3 0  1212
2 63710  53.1603 335.8857 0001205  75.9960 358.0816 15.30201892    13
